NORAD_CAT_ID,OBJECT_NAME,OBJECT_TYPE,EPOCH,MEAN_MOTION,ECCENTRICITY,INCLINATION,RA_OF_ASC_NODE,ARG_OF_PERICENTER,MEAN_ANOMALY,BSTAR,MEAN_MOTION_DOT,MEAN_MOTION_DDOT,TLE_LINE0,TLE_LINE1,TLE_LINE2,SEMIMAJOR_AXIS,PERIOD,APOGEE,PERIGEE,DECAYED
52986.0,STARLINK-4260,PAYLOAD,2023-06-22 10:17:27,15.08837522,0.0001041,53.2163,224.0648,81.7347,278.3763,2.8571e-05,1.67e-06,0.0,0 STARLINK-4260,1 52986U 22076A   23173.42879549  .00000167  00000-0  28571-4 0  9992,2 52986  53.2163 224.0648 0001041  81.7347 278.3763 15.08837522 53661,6917.888,95.438,540.473,539.033,0.0
52986.0,STARLINK-4260,PAYLOAD,2023-06-23 11:43:37,15.08845204,0.000103,53.2164,219.3075,79.0732,281.0376,7.5752e-05,9.18e-06,0.0,0 STARLINK-4260,1 52986U 22076A   23174.48862906  .00000918  00000-0  75752-4 0  9995,2 52986  53.2164 219.3075 0001030  79.0732 281.0376 15.08845204 53824,6917.864,95.437,540.442,539.017,0.0
52986.0,STARLINK-4260,PAYLOAD,2023-06-24 02:02:06,15.08830446,0.0001039,53.2168,216.6321,83.159,276.952,3.1393e-05,2.12e-06,0.0,0 STARLINK-4260,1 52986U 22076A   23175.08480086  .00000212  00000-0  31393-4 0  9997,2 52986  53.2168 216.6321 0001039  83.1590 276.9520 15.08830446 53915,6917.91,95.438,540.493,539.056,0.0
52986.0,STARLINK-4260,PAYLOAD,2023-06-25 01:52:53,15.08843542,0.0001132,53.2166,212.1719,88.6258,271.4864,2.5033e-05,1.11e-06,0.0,0 STARLINK-4260,1 52986U 22076A   23176.07839646  .00000111  00000-0  25033-4 0  9999,2 52986  53.2166 212.1719 0001132  88.6258 271.4864 15.08843542 54069,6917.87,95.437,540.518,538.951,0.0
52986.0,STARLINK-4260,PAYLOAD,2023-06-26 01:43:40,15.08836127,0.000114,53.216,207.7105,87.5823,272.53,0.00011355,1.52e-05,0.0,0 STARLINK-4260,1 52986U 22076A   23177.07199933  .00001520  00000-0  11355-3 0  9994,2 52986  53.2160 207.7105 0001140  87.5823 272.5300 15.08836127 54212,6917.892,95.438,540.546,538.969,0.0
52986.0,STARLINK-4260,PAYLOAD,2023-06-27 07:56:00,15.08841209,0.0001141,53.2158,202.0602,87.5312,272.5811,4.1427e-05,3.72e-06,0.0,0 STARLINK-4260,1 52986U 22076A   23178.33055935  .00000372  00000-0  41427-4 0  9995,2 52986  53.2158 202.0602 0001141  87.5312 272.5811 15.08841209 54408,6917.877,95.437,540.531,538.952,0.0
52986.0,STARLINK-4260,PAYLOAD,2023-06-28 12:32:56,15.08841851,0.0001141,53.2159,196.7075,86.9921,273.1202,5.9538e-05,6.6e-06,0.0,0 STARLINK-4260,1 52986U 22076A   23179.52287724  .00000660  00000-0  59538-4 0  9992,2 52986  53.2159 196.7075 0001141  86.9921 273.1202 15.08841851 54584,6917.875,95.437,540.529,538.95,0.0
52986.0,STARLINK-4260,PAYLOAD,2023-06-29 10:48:20,15.0883874,0.0001178,53.2162,192.5438,88.9182,271.1945,2.7066e-05,1.43e-06,0.0,0 STARLINK-4260,1 52986U 22076A   23180.45024015  .00000143  00000-0  27066-4 0  9995,2 52986  53.2162 192.5438 0001178  88.9182 271.1945 15.08838740 54727,6917.884,95.438,540.564,538.934,0.0
52986.0,STARLINK-4260,PAYLOAD,2023-07-01 00:57:36,15.08832366,0.0001139,53.2161,185.4078,85.4462,274.666,-3.2901e-06,-3.4e-06,0.0,0 STARLINK-4260,1 52986U 22076A   23182.04000607 -.00000340  00000-0 -32901-5 0  9999,2 52986  53.2161 185.4078 0001139  85.4462 274.6660 15.08832366 54963,6917.904,95.438,540.557,538.981,0.0
52986.0,STARLINK-4260,PAYLOAD,2023-07-02 07:09:56,15.08837573,0.000113,53.2164,179.7586,87.3461,272.766,2.6812e-05,1.39e-06,0.0,0 STARLINK-4260,1 52986U 22076A   23183.29856538  .00000139  00000-0  26812-4 0  9996,2 52986  53.2164 179.7586 0001130  87.3461 272.7660 15.08837573 55153,6917.888,95.438,540.535,538.971,0.0
52986.0,STARLINK-4260,PAYLOAD,2023-07-03 16:33:01,15.08838296,0.0001126,53.2166,173.5133,88.1105,272.0016,6.3621e-05,7.25e-06,0.0,0 STARLINK-4260,1 52986U 22076A   23184.68960577  .00000725  00000-0  63621-4 0  9999,2 52986  53.2166 173.5133 0001126  88.1105 272.0016 15.08838296 55368,6917.886,95.438,540.53,538.972,0.0
52986.0,STARLINK-4260,PAYLOAD,2023-07-04 22:45:21,15.08841037,0.0001262,53.2164,167.8639,88.7749,271.3388,2.9832e-05,1.87e-06,0.0,0 STARLINK-4260,1 52986U 22076A   23185.94816496  .00000187  00000-0  29832-4 0  9997,2 52986  53.2164 167.8639 0001262  88.7749 271.3388 15.08841037 55556,6917.877,95.437,540.615,538.869,0.0
52986.0,STARLINK-4260,PAYLOAD,2023-07-06 08:08:27,15.08842054,0.0001172,53.216,161.6183,93.9625,266.1501,1.2454e-05,-9e-07,0.0,0 STARLINK-4260,1 52986U 22076A   23187.33920517 -.00000090  00000-0  12454-4 0  9998,2 52986  53.2160 161.6183 0001172  93.9625 266.1501 15.08842054 55761,6917.874,95.437,540.55,538.928,0.0
52986.0,STARLINK-4260,PAYLOAD,2023-07-08 07:50:01,15.08843806,0.0001179,53.2161,152.6977,89.0852,271.0275,7.3027e-05,8.75e-06,0.0,0 STARLINK-4260,1 52986U 22076A   23189.32640456  .00000875  00000-0  73027-4 0  9993,2 52986  53.2161 152.6977 0001179  89.0852 271.0275 15.08843806 56061,6917.869,95.437,540.549,538.918,0.0
52986.0,STARLINK-4260,PAYLOAD,2023-07-08 14:11:34,15.0883622,0.00012,53.2166,151.507,87.3583,272.7547,2.0201e-05,3.4e-07,0.0,0 STARLINK-4260,1 52986U 22076A   23189.59137139  .00000034  00000-0  20201-4 0  9994,2 52986  53.2166 151.5070 0001200  87.3583 272.7547 15.08836220 56102,6917.892,95.438,540.587,538.927,0.0
52986.0,STARLINK-4260,PAYLOAD,2023-07-09 04:30:03,15.08831106,0.000116,53.2173,148.8332,94.4569,265.6556,-1.5656e-05,-5.37e-06,0.0,0 STARLINK-4260,1 52986U 22076A   23190.18753898 -.00000537  00000-0 -15656-4 0  9995,2 52986  53.2173 148.8332 0001160  94.4569 265.6556 15.08831106 56196,6917.908,95.438,540.575,538.97,0.0
52986.0,STARLINK-4260,PAYLOAD,2023-07-10 02:45:26,15.08841007,0.000118,53.2177,144.6709,99.6655,260.4471,2.5147e-05,1.12e-06,0.0,0 STARLINK-4260,1 52986U 22076A   23191.11489494  .00000112  00000-0  25147-4 0  9990,2 52986  53.2177 144.6709 0001180  99.6655 260.4471 15.08841007 56333,6917.877,95.437,540.559,538.926,0.0
52986.0,STARLINK-4260,PAYLOAD,2023-07-11 05:47:00,15.08839882,9.74e-05,53.217,139.614,86.6612,273.4491,0.00012103,1.639e-05,0.0,0 STARLINK-4260,1 52986U 22076A   23192.24097345  .00001639  00000-0  12103-3 0  9997,2 52986  53.2170 139.6140 0000974  86.6612 273.4491 15.08839882 56501,6917.881,95.438,540.42,539.072,0.0
52986.0,STARLINK-4260,PAYLOAD,2023-07-12 13:34:42,15.08846578,0.0001077,53.2171,133.6676,85.952,274.1595,5.768e-05,6.3e-06,0.0,0 STARLINK-4260,1 52986U 22076A   23193.56577109  .00000630  00000-0  57680-4 0  9994,2 52986  53.2171 133.6676 0001077  85.9520 274.1595 15.08846578 56700,6917.86,95.437,540.47,538.98,0.0
52986.0,STARLINK-4260,PAYLOAD,2023-07-14 02:08:35,15.08832189,0.0001406,53.2174,126.8235,102.9515,257.1634,-4.3071e-05,-9.73e-06,0.0,0 STARLINK-4260,1 52986U 22076A   23195.08930363 -.00000973  00000-0 -43071-4 0  9999,2 52986  53.2174 126.8235 0001406 102.9515 257.1634 15.08832189 56931,6917.904,95.438,540.742,538.797,0.0
52986.0,STARLINK-4260,PAYLOAD,2023-07-15 01:59:21,15.08848201,0.0001071,53.2172,122.3684,91.4171,268.6944,0.00014187,1.971e-05,0.0,0 STARLINK-4260,1 52986U 22076A   23196.08288958  .00001971  00000-0  14187-3 0  9998,2 52986  53.2172 122.3684 0001071  91.4171 268.6944 15.08848201 57086,6917.855,95.437,540.461,538.979,0.0
52986.0,STARLINK-4260,PAYLOAD,2023-07-15 19:28:37,15.08835389,0.0001215,53.2178,119.0972,89.2835,270.8296,0.00011283,1.508e-05,0.0,0 STARLINK-4260,1 52986U 22076A   23196.81154235  .00001508  00000-0  11283-3 0  9999,2 52986  53.2178 119.0972 0001215  89.2835 270.8296 15.08835389 57197,6917.894,95.438,540.6,538.919,0.0
52986.0,STARLINK-4260,PAYLOAD,2023-07-16 05:00:55,15.08845774,0.0001157,53.2167,117.3123,100.496,259.6162,0.00016345,2.315e-05,0.0,0 STARLINK-4260,1 52986U 22076A   23197.20897725  .00002315  00000-0  16345-3 0  9992,2 52986  53.2167 117.3123 0001157 100.4960 259.6162 15.08845774 57257,6917.863,95.437,540.528,538.927,0.0
52986.0,STARLINK-4260,PAYLOAD,2023-07-17 11:13:15,15.08842178,0.0001162,53.2175,111.6627,99.4893,260.623,0.00014513,2.023e-05,0.0,0 STARLINK-4260,1 52986U 22076A   23198.46754167  .00002023  00000-0  14513-3 0  9994,2 52986  53.2175 111.6627 0001162  99.4893 260.6230 15.08842178 57444,6917.874,95.437,540.543,538.935,0.0
52986.0,STARLINK-4260,PAYLOAD,2023-07-19 02:57:54,15.08845078,0.0001625,53.2167,104.2287,85.2119,274.9059,0.00017131,2.44e-05,0.0,0 STARLINK-4260,1 52986U 22076A   23200.12354287  .00002440  00000-0  17131-3 0  9992,2 52986  53.2167 104.2287 0001625  85.2119 274.9059 15.08845078 57699,6917.865,95.437,540.854,538.606,0.0
52986.0,STARLINK-4260,PAYLOAD,2023-07-20 17:07:09,15.08837912,0.0001131,53.2159,97.0912,91.0921,269.02,0.00024197,3.565e-05,0.0,0 STARLINK-4260,1 52986U 22076A   23201.71330834  .00003565  00000-0  24197-3 0  9999,2 52986  53.2159  97.0912 0001131  91.0921 269.0200 15.08837912 57930,6917.887,95.438,540.534,538.969,0.0
52986.0,STARLINK-4260,PAYLOAD,2023-07-24 00:36:26,15.08836706,0.0001216,53.2165,82.2234,93.6061,266.507,6.3319e-06,-1.87e-06,0.0,0 STARLINK-4260,1 52986U 22076A   23205.02531161 -.00000187  00000-0  63319-5 0  9992,2 52986  53.2165  82.2234 0001216  93.6061 266.5070 15.08836706 57967,6917.89,95.438,540.597,538.914,0.0
52986.0,STARLINK-4260,PAYLOAD,2023-07-25 00:27:13,15.08844531,0.0001131,53.2172,77.7636,99.5998,260.5122,6.8207e-05,7.98e-06,0.0,0 STARLINK-4260,1 52986U 22076A   23206.01890810  .00000798  00000-0  68207-4 0  9998,2 52986  53.2172  77.7636 0001131  99.5998 260.5122 15.08844531 58115,6917.867,95.437,540.514,538.949,0.0
52986.0,STARLINK-4260,PAYLOAD,2023-07-26 00:18:01,15.08841634,8.93e-05,53.2164,73.3022,91.1118,268.9976,0.00012238,1.661e-05,0.0,0 STARLINK-4260,1 52986U 22076A   23207.01251161  .00001661  00000-0  12238-3 0  9991,2 52986  53.2164  73.3022 0000893  91.1118 268.9976 15.08841634 58269,6917.875,95.437,540.358,539.123,0.0
52986.0,STARLINK-4260,PAYLOAD,2023-07-26 20:58:01,15.08845601,9.85e-05,53.2164,69.4379,76.0428,284.0674,0.00020641,2.999e-05,0.0,0 STARLINK-4260,1 52986U 22076A   23207.87362980  .00002999  00000-0  20641-3 0  9999,2 52986  53.2164  69.4379 0000985  76.0428 284.0674 15.08845601 58394,6917.863,95.437,540.41,539.047,0.0
